satname,norad_id,inclination_deg,eccentricity,mean_motion_rev_per_day,perigee_km,apogee_km,l1,l2
STARLINK-1255,45399,53.0424,0.0002548,15.49780636,415.6357464164721,419.0987353776327,1 45399U 20019AR  26058.44215730  .00076049  00000+0  13395-2 0  9997,2 45399  53.0424 151.9814 0002548 231.2334 128.8447 15.49780636328844
STARLINK-1260,45404,53.162,7.13e-05,15.30180208,474.7855171846677,475.76281361685415,1 45404U 20019AW  26058.37800632  .00000307  00000+0  22490-4 0  9999,2 45404  53.1620 177.1387 0000713  78.1010 282.0071 15.30180208328391
STARLINK-1263,45405,53.1597,6.68e-05,15.30205774,474.7400265837041,475.6556321169055,1 45405U 20019AX  26058.69297475  .00004174  00000+0  15294-3 0  9999,2 45405  53.1597 175.7029 0000668 135.1169 224.9886 15.30205774328441
STARLINK-1265,45406,53.1619,0.0001244,15.3019405,474.38027589690864,476.08539431188365,1 45406U 20019AY  26058.51179896  .00002375  00000+0  92301-4 0  9993,2 45406  53.1619 176.6216 0001244  83.5005 276.6138 15.30194050328416
STARLINK-1278,45408,53.0451,0.0001161,15.5370472,405.13283495429096,406.708093097438,1 45408U 20019BA  26058.91668981  .00075237  00000+0  11521-2 0  9997,2 45408  53.0451 177.6371 0001161 125.4581  67.0191 15.53704720  5854
STARLINK-1296,45412,53.1622,0.0001189,15.30203898,474.38856854143705,476.0182928958611,1 45412U 20019BE  26058.70138898  .00002375  00000+0  92265-4 0  9997,2 45412  53.1622 175.6441 0001189  80.3645 279.7490 15.30203898328448
STARLINK-1298,45413,53.0371,0.0007435,15.90563233,295.7399819376633,305.67142103477363,1 45413U 20019BF  26058.91668981  .00220637  28953-4  70786-3 0  9990,2 45413  53.0371 103.8974 0007435 339.3571 173.0871 15.90563233  6044
STARLINK-1309,45414,53.0677,0.0003352,15.52671246,406.65546423993874,411.2055142847412,1 45414U 20019BG  26058.59335302  .00081128  00000+0  12878-2 0  9998,2 45414  53.0677 172.3076 0003352 359.2122   0.8881 15.52671246328468
STARLINK-1316,45415,53.1609,0.0001236,15.30209876,474.3385109509927,476.03265229317003,1 45415U 20019BH  26058.68138548  .00002422  00000+0  93846-4 0  9998,2 45415  53.1609 175.7859 0001236  84.1039 276.0103 15.30209876328467
STARLINK-1318,45416,53.0245,0.0005499,16.21351666,212.25846349393487,219.51056835715008,1 45416U 20019BJ  26058.61844181  .02553545  11871-4  11537-2 0  9996,2 45416  53.0245  89.4712 0005499  11.5965 348.5199 16.21351666329646
STARLINK-1286,45417,53.0475,0.0002195,15.50011773,415.2001976947513,418.18312747762775,1 45417U 20019BK  26058.67939205  .00036211  00000+0  64003-3 0  9993,2 45417  53.0475 178.7901 0002195  63.7952 296.3281 15.50011773328676
STARLINK-1308,45419,53.0534,6.53e-05,15.49342562,418.2042953911832,419.0919555285682,1 45419U 20019BM  26058.75145266  .00026586  00000+0  48384-3 0  9998,2 45419  53.0534 199.7767 0000653  52.0727 308.0340 15.49342562328134
STARLINK-1329,45531,53.0505,0.0002136,15.54080632,403.3775951035286,406.2752770834268,1 45531U 20025A   26058.91668981  .00076641  00000+0  11573-2 0  9998,2 45531  53.0505 128.6082 0002136 257.8400 347.0516 15.54080632  5952
STARLINK-1338,45532,53.0502,0.0004594,15.52631976,405.9268988332933,412.1629615907714,1 45532U 20025B   26058.60294765  .00072075  00000+0  11477-2 0  9990,2 45532  53.0502 133.3951 0004594 309.8512  50.2092 15.52631976323833
STARLINK-1350,45535,53.0727,0.0001733,15.35788438,457.39481618777063,459.7644221679775,1 45535U 20025E   26058.77009009  .00010880  00000+0  31841-3 0  9990,2 45535  53.0727  79.7211 0001733  55.1965 304.9200 15.35788438324638
STARLINK-1362,45538,53.162,0.000126,15.30199374,474.35341594686724,476.08046113938053,1 45538U 20025H   26058.66281390 -.00000002  00000+0  12047-4 0  9990,2 45538  53.1620 147.5703 0001260  85.6346 274.4798 15.30199374323643
STARLINK-1368,45540,53.1612,0.0001371,15.30197756,474.2821741197149,476.1613650943409,1 45540U 20025K   26058.54171765  .00000164  00000+0  17657-4 0  9994,2 45540  53.1612 148.4650 0001371  97.7330 262.3826 15.30197756323615
STARLINK-1371,45542,53.0516,0.0001993,15.45198151,429.43888653866725,432.152927195345,1 45542U 20025M   26058.53452237  .00060693  00000+0  12573-2 0  9994,2 45542  53.0516 137.8652 0001993 266.1979  93.8799 15.45198151323762
STARLINK-1372,45543,53.1623,0.0001148,15.30204443,474.41504015964256,475.9885667489152,1 45543U 20025N   26058.51848366  .00001922  00000+0  76997-4 0  9997,2 45543  53.1623 148.2664 0001148  82.3256 277.7876 15.30204443322719
STARLINK-1373,45544,53.0514,0.0004275,15.48706147,417.60359346221776,423.4164366600962,1 45544U 20025P   26058.63659323  .00044712  00000+0  82433-3 0  9999,2 45544  53.0514 137.1878 0004275 316.9257  43.1415 15.48706147323782
STARLINK-1294,45551,53.0284,0.0003417,16.13425351,235.20273034991715,239.7238315819286,1 45551U 20025W   26058.15639510  .01538630  18310-2  12993-2 0  9997,2 45551  53.0284  28.5085 0003417 142.4433 217.6841 16.13425351325266
STARLINK-1327,45555,53.0496,0.0005482,15.51729542,407.9539649827029,415.39831610999863,1 45555U 20025AA  26058.41931711  .00077153  00000+0  12674-2 0  9995,2 45555  53.0496 116.1264 0005482  13.5149 346.6005 15.51729542324055
STARLINK-1356,45564,53.0529,0.000548,15.4346733,432.1511616106618,439.61932999205965,1 45564U 20025AK  26058.43937537  .00044585  00000+0  98353-3 0  9991,2 45564  53.0529 122.6016 0005480 357.6355   2.4623 15.43467330323965
STARLINK-1357,45565,53.054,0.000323,15.53133498,405.39196546979656,409.7755410764112,1 45565U 20025AL  26058.49096771  .00082939  00000+0  12943-2 0  9999,2 45565  53.0540  87.2657 0003230  30.3440 329.7756 15.53133498324472
STARLINK-1361,45567,53.0514,0.0007292,15.45702996,424.3492477366999,434.2772331673759,1 45567U 20025AN  26058.67381892  .00067779  00000+0  13768-2 0  9993,2 45567  53.0514 121.7285 0007292 354.1678   5.9242 15.45702996324006
STARLINK-1363,45568,53.0439,0.0008618,15.74235567,341.01178747126323,352.602901543456,1 45568U 20025AP  26058.35687396  .00096156  00000+0  65070-3 0  9992,2 45568  53.0439  89.2261 0008618  18.1499 341.9825 15.74235567324429
STARLINK-1366,45569,53.0439,0.0008461,15.73529781,343.1264407917388,354.5097942415996,1 45569U 20025AQ  26058.49430473  .00087601  00000+0  61213-3 0  9990,2 45569  53.0439  89.2626 0008461  17.0545 343.0755 15.73529781324430
STARLINK-1376,45570,53.1613,0.0001361,15.29363067,476.7820585554073,478.64822150792315,1 45570U 20025AR  26058.45922050  .00000922  00000+0  44279-4 0  9990,2 45570  53.1613 125.2620 0001361  88.8331 271.2825 15.29363067323931
STARLINK-1320,45572,53.0498,0.0008126,15.66902811,362.29011599478144,373.2535670440184,1 45572U 20025AT  26058.35214414  .00075750  00000+0  69915-3 0  9993,2 45572  53.0498  36.6715 0008126  20.0661 340.0672 15.66902811325184
STARLINK-1321,45573,53.0503,0.0004136,15.46385624,424.494997897491,430.12446343309693,1 45573U 20025AU  26058.42402848  .00069738  00000+0  13840-2 0  9996,2 45573  53.0503 107.5517 0004136 359.2046   0.8953 15.46385624323873
STARLINK-1331,45578,53.0544,0.0003412,15.46393503,424.9646039073168,429.6086249818136,1 45578U 20025AZ  26058.62501109  .00065097  00000+0  12930-2 0  9996,2 45578  53.0544 113.2584 0003412  45.9425 314.1862 15.46393503324121
STARLINK-1333,45580,53.1612,0.0001408,15.30225167,474.1749849323696,476.10486771482283,1 45580U 20025BB  26058.43892732  .00008943  00000+0  31346-3 0  9993,2 45580  53.1612 125.4223 0001408  85.3262 274.7899 15.30225167323938
STARLINK-1335,45581,53.1075,0.0001902,15.19035029,507.4457947719575,510.0655687481003,1 45581U 20025BC  26058.91668981  .01481181  00000+0  63774-1 0  9992,2 45581  53.1075 120.2001 0001902 101.9697  93.4554 15.19035029  5838
STARLINK-1337,45582,53.0543,0.0003754,15.56289696,395.86231716354996,400.95014582175463,1 45582U 20025BD  26058.60888394  .00084768  00000+0  11782-2 0  9993,2 45582  53.0543 110.6557 0003754  46.2182 313.9139 15.56289696324143
STARLINK-1347,45586,53.0473,0.0006063,15.51807415,407.3324611428761,415.56551311086605,1 45586U 20025BH  26058.32047892  .00084547  00000+0  13828-2 0  9994,2 45586  53.0473  79.4697 0006063   9.5465 350.5658 15.51807415324556
STARLINK-1364,45589,53.0521,0.0006733,15.47518506,419.40810789810257,428.56784939434874,1 45589U 20025BL  26058.55497578  .00063191  00000+0  12072-2 0  9994,2 45589  53.0521 111.7235 0006733  16.3851 343.7372 15.47518506324125
STARLINK-1365,45590,53.0526,0.0002474,15.43957638,432.75713738709237,436.1280017581166,1 45590U 20025BM  26058.63890351  .00031499  00000+0  68753-3 0  9995,2 45590  53.0526 141.3700 0002474 354.9649   5.1331 15.43957638323731
STARLINK-1443,45660,53.1244,0.0001887,15.22648993,496.55663793390977,499.15163698918786,1 45660U 20035D   26058.91668981  .01322793  00000+0  51785-1 0  9993,2 45660  53.1244 109.9599 0001887  92.5866  89.9865 15.22648993  5788
STARLINK-1446,45663,53.0246,8.21e-05,15.42364364,438.57369495247167,439.6930907509768,1 45663U 20035G   26058.25081959  .00022320  00000+0  51729-3 0  9999,2 45663  53.0246  48.9435 0000821 209.5672 150.5286 15.42364364318064
STARLINK-1448,45665,53.0519,0.0006942,15.50025093,411.9357923337411,421.3696784023259,1 45665U 20035J   26058.59943399  .00077006  00000+0  13435-2 0  9995,2 45665  53.0519 101.2330 0006942  35.9973 324.1501 15.50025093317353
STARLINK-1451,45668,53.0534,0.0001133,15.09451186,537.0922839960176,538.6594525119644,1 45668U 20035M   26058.55225009  .00017379  00000+0  10890-2 0  9994,2 45668  53.0534 111.8092 0001133 340.3585  19.7361 15.09451186317210
STARLINK-1452,45669,53.0328,0.0008101,15.43120842,431.38434282705293,442.4260742132983,1 45669U 20035N   26058.32396201  .00073088  00000+0  16183-2 0  9993,2 45669  53.0328  71.0486 0008101  12.5099 347.6105 15.43120842317765
STARLINK-1453,45670,53.0499,0.0008487,15.50009398,410.93182651965435,422.46538047302874,1 45670U 20035P   26058.71993729  .00085108  00000+0  14827-2 0  9995,2 45670  53.0499  61.2578 0008487   4.5844 355.5240 15.50009398317820
